<?xml version="1.0" encoding="UTF-8" ?>
<kml xmlns="http://www.opengis.net/kml/2.2" xmlns:atom="http://www.w3.org/2005/Atom" xmlns:gx="http://www.google.com/kml/ext/2.2" xmlns:kml="http://www.opengis.net/kml/2.2">
	<Document>
		<name>bible_perimeter</name>
		<ars_layer_color>0.000000,0.500000,0.800000</ars_layer_color>
		<ars_label_column/>
		<Schema id="S_schema_31479787472627317772" name="schema_31479787472627317772">
			<SimpleField name="FeatureType" type="string">
				<displayName>FeatureType</displayName>
			</SimpleField>
			<SimpleField name="IconPath" type="string">
				<displayName>IconPath</displayName>
			</SimpleField>
			<SimpleField name="Name" type="string">
				<displayName>Name</displayName>
			</SimpleField>
			<SimpleField name="Comment" type="string">
				<displayName>Comment</displayName>
			</SimpleField>
			<SimpleField name="Altitude" type="double">
				<displayName>Altitude</displayName>
			</SimpleField>
			<SimpleField name="ScreenshotPath" type="string">
				<displayName>ScreenshotPath</displayName>
			</SimpleField>
			<SimpleField name="NameBak" type="string">
				<displayName>NameBak</displayName>
			</SimpleField>
		</Schema>
		<Folder>
			<name>Features</name>
			<Placemark>
				<name>Heat Perimeter</name>
				<ExtendedData>
					<SchemaData schemaUrl="#S_schema_31479787472627317772">
						<SimpleData name="FeatureType">shape</SimpleData>
						<SimpleData name="IconPath"/>
						<SimpleData name="Name">Heat Perimeter</SimpleData>
						<SimpleData name="Comment"/>
						<SimpleData name="Altitude">0</SimpleData>
						<SimpleData name="ScreenshotPath"/>
						<SimpleData name="NameBak"/>
					</SchemaData>
				</ExtendedData>
				<ars_uniqueid>0</ars_uniqueid>
				<Polygon>
					<outerBoundaryIs>
						<LinearRing>
							<coordinates>-114.6002789552,43.9881517489,0 -114.6002840353,43.9879086228,0 -114.6000572059,43.9877585658,0 -114.5997891363,43.9875812251,0 -114.5995142584,43.9876184803,0 -114.5992317064,43.9878560663,0 -114.5988606281,43.9879392304,0 -114.5986759060,43.9878307190,0 -114.5986792669,43.9875590629,0 -114.5988771009,43.9873228730,0 -114.5989008070,43.9871258208,0 -114.5987432166,43.9869873040,0 -114.5987902676,43.9869417564,0 -114.5990134278,43.9870035632,0 -114.5991833727,43.9870572325,0 -114.5997717746,43.9869672120,0 -114.5998485135,43.9864835376,0 -114.6001964282,43.9863062973,0 -114.6002963951,43.9859498271,0 -114.6004188421,43.9855801788,0 -114.6006734783,43.9853732693,0 -114.6008556508,43.9854199610,0 -114.6011431035,43.9855267604,0 -114.6015009459,43.9856086185,0 -114.6015972472,43.9858045477,0 -114.6017277437,43.9860053456,0 -114.6018280305,43.9862367430,0 -114.6017207206,43.9864626592,0 -114.6019569411,43.9864409111,0 -114.6021552651,43.9861202244,0 -114.6027694566,43.9861294192,0 -114.6029172583,43.9862819659,0 -114.6029586144,43.9866379629,0 -114.6030093604,43.9868221581,0 -114.6034474731,43.9868654928,0 -114.6036381312,43.9867451351,0 -114.6034881933,43.9861414907,0 -114.6037570650,43.9857420479,0 -114.6039730501,43.9854649641,0 -114.6040852685,43.9856305213,0 -114.6043240774,43.9856515629,0 -114.6044469391,43.9857191427,0 -114.6044745889,43.9855397657,0 -114.6045469036,43.9854650819,0 -114.6046523234,43.9852481118,0 -114.6049024854,43.9848309591,0 -114.6053622393,43.9848444816,0 -114.6057418164,43.9853168901,0 -114.6061305813,43.9857374103,0 -114.6063070119,43.9858753437,0 -114.6064154804,43.9859547727,0 -114.6065925033,43.9860154267,0 -114.6068364825,43.9858966764,0 -114.6072353626,43.9860026266,0 -114.6076632305,43.9862034821,0 -114.6077500438,43.9863293664,0 -114.6077544194,43.9864977041,0 -114.6080042377,43.9865385108,0 -114.6081959961,43.9866923853,0 -114.6083214056,43.9866114353,0 -114.6086969333,43.9869282787,0 -114.6087828844,43.9870398974,0 -114.6089908402,43.9872048260,0 -114.6090166554,43.9873040543,0 -114.6088431681,43.9873810015,0 -114.6085823730,43.9873698208,0 -114.6085973332,43.9873963394,0 -114.6085327267,43.9876365842,0 -114.6088449025,43.9877791611,0 -114.6092148594,43.9877865166,0 -114.6094726201,43.9879022287,0 -114.6093633087,43.9880581354,0 -114.6091995791,43.9881871789,0 -114.6090828647,43.9884386002,0 -114.6091568012,43.9885696547,0 -114.6094294682,43.9887134795,0 -114.6097518362,43.9885889456,0 -114.6098416275,43.9883288473,0 -114.6101502438,43.9881952192,0 -114.6104967461,43.9882509529,0 -114.6106960521,43.9882732309,0 -114.6108879594,43.9883910234,0 -114.6110861113,43.9883942811,0 -114.6112738710,43.9882263621,0 -114.6115326839,43.9881419467,0 -114.6116620901,43.9880997388,0 -114.6117055378,43.9879459145,0 -114.6112622170,43.9878170239,0 -114.6107793836,43.9876893819,0 -114.6105673808,43.9874578882,0 -114.6107746604,43.9873941612,0 -114.6111612500,43.9874581525,0 -114.6113196553,43.9875301337,0 -114.6113299689,43.9872594522,0 -114.6114648043,43.9871980166,0 -114.6115875804,43.9871941308,0 -114.6115791632,43.9871686125,0 -114.6118087414,43.9870374814,0 -114.6121962858,43.9870859579,0 -114.6121389772,43.9868908360,0 -114.6120882031,43.9867066458,0 -114.6122549676,43.9866605582,0 -114.6123462340,43.9865440642,0 -114.6125282050,43.9865037828,0 -114.6125098507,43.9864704643,0 -114.6126488667,43.9864241718,0 -114.6126089689,43.9863070731,0 -114.6128145094,43.9862148132,0 -114.6132216592,43.9861828659,0 -114.6133860667,43.9862824688,0 -114.6132887843,43.9864189422,0 -114.6133386953,43.9865888671,0 -114.6133038608,43.9867653991,0 -114.6133608802,43.9867818599,0 -114.6134829690,43.9867581743,0 -114.6135408997,43.9867815966,0 -114.6136353941,43.9866938086,0 -114.6139148785,43.9867325981,0 -114.6140850662,43.9869272976,0 -114.6141572781,43.9870298193,0 -114.6141603754,43.9871627726,0 -114.6141859063,43.9871959225,0 -114.6142544218,43.9871906462,0 -114.6145617094,43.9872222525,0 -114.6146136798,43.9871381840,0 -114.6149407953,43.9870920915,0 -114.6151957038,43.9872150270,0 -114.6155751491,43.9871821895,0 -114.6159047897,43.9870136430,0 -114.6159481406,43.9866919701,0 -114.6158305461,43.9862862927,0 -114.6155931438,43.9861773992,0 -114.6156093967,43.9859848287,0 -114.6157141002,43.9857414673,0 -114.6160407461,43.9855275926,0 -114.6162602010,43.9852650197,0 -114.6163174653,43.9848496902,0 -114.6163957917,43.9846023268,0 -114.6167909844,43.9846194958,0 -114.6173294573,43.9846078322,0 -114.6179683987,43.9846265793,0 -114.6182534896,43.9849183886,0 -114.6183161007,43.9851267968,0 -114.6186419998,43.9849284564,0 -114.6189345936,43.9848219177,0 -114.6188796110,43.9850590136,0 -114.6190405728,43.9851989228,0 -114.6192784281,43.9852135051,0 -114.6195712088,43.9853008471,0 -114.6197458196,43.9854238734,0 -114.6196872416,43.9857775240,0 -114.6199182798,43.9859748483,0 -114.6200357044,43.9861676714,0 -114.6200909513,43.9864347370,0 -114.6201134282,43.9866695153,0 -114.6200322258,43.9868531246,0 -114.6198495655,43.9868875033,0 -114.6197277978,43.9869293394,0 -114.6197846187,43.9869867707,0 -114.6198792706,43.9872410259,0 -114.6202357626,43.9872440088,0 -114.6206730185,43.9872730121,0 -114.6205631593,43.9874194188,0 -114.6206104872,43.9875465461,0 -114.6211508721,43.9876437359,0 -114.6214493327,43.9873745756,0 -114.6216693043,43.9872560248,0 -114.6218595846,43.9871885919,0 -114.6221483774,43.9871671934,0 -114.6222809968,43.9872300743,0 -114.6221704741,43.9873059841,0 -114.6222243395,43.9875883652,0 -114.6221879614,43.9878739500,0 -114.6219766448,43.9880110165,0 -114.6219442385,43.9880137249,0 -114.6219148852,43.9881625883,0 -114.6217472308,43.9882347971,0 -114.6218060896,43.9883141903,0 -114.6217001840,43.9884238452,0 -114.6217175325,43.9884975704,0 -114.6219118507,43.9887629527,0 -114.6220765011,43.9888988523,0 -114.6222568653,43.9888854323,0 -114.6225669648,43.9888665998,0 -114.6225928215,43.9888108706,0 -114.6227737483,43.9887479583,0 -114.6230766938,43.9887383401,0 -114.6232125187,43.9887340275,0 -114.6229166741,43.9883750509,0 -114.6228133211,43.9881373679,0 -114.6229171704,43.9878937531,0 -114.6232172538,43.9877759717,0 -114.6237502349,43.9879392658,0 -114.6238547960,43.9880612795,0 -114.6240981247,43.9880654468,0 -114.6243285538,43.9882598950,0 -114.6243912421,43.9885217863,0 -114.6245373967,43.9886817982,0 -114.6248511670,43.9888554338,0 -114.6250608610,43.9889314942,0 -114.6253575694,43.9890765753,0 -114.6254565330,43.9891983283,0 -114.6256433799,43.9893731464,0 -114.6257445080,43.9894505282,0 -114.6257612848,43.9895208327,0 -114.6257240616,43.9895582631,0 -114.6257414609,43.9895874516,0 -114.6259151733,43.9898391897,0 -114.6259908874,43.9899987609,0 -114.6260390988,43.9901401498,0 -114.6258639688,43.9902981637,0 -114.6258521179,43.9905367418,0 -114.6256711895,43.9905996590,0 -114.6252438918,43.9905179542,0 -114.6250583259,43.9905047933,0 -114.6249089133,43.9905023555,0 -114.6248716495,43.9905555262,0 -114.6246942669,43.9906325202,0 -114.6249655396,43.9906342069,0 -114.6250677594,43.9907085405,0 -114.6251019541,43.9908153792,0 -114.6251133474,43.9908076763,0 -114.6254033880,43.9908193503,0 -114.6254225967,43.9908478487,0 -114.6255358811,43.9908558828,0 -114.6255247939,43.9909994704,0 -114.6255412299,43.9910238551,0 -114.6257311634,43.9911494184,0 -114.6257635479,43.9910514711,0 -114.6259805353,43.9910532750,0 -114.6260832966,43.9908869932,0 -114.6262852799,43.9907672538,0 -114.6265974484,43.9907384463,0 -114.6266001842,43.9907833143,0 -114.6267046023,43.9907975857,0 -114.6268311686,43.9911109393,0 -114.6268338980,43.9912654129,0 -114.6270554386,43.9913849281,0 -114.6270499496,43.9914252773,0 -114.6272157326,43.9914847049,0 -114.6272950277,43.9914528596,0 -114.6275357670,43.9915396409,0 -114.6278433395,43.9914354288,0 -114.6279745582,43.9914827296,0 -114.6280600415,43.9914670103,0 -114.6282066746,43.9914909323,0 -114.6285303465,43.9916045052,0 -114.6287457416,43.9916738803,0 -114.6287321618,43.9918839294,0 -114.6287110393,43.9919703537,0 -114.6286188341,43.9919732858,0 -114.6285156317,43.9919601391,0 -114.6284868977,43.9920858999,0 -114.6282061784,43.9920707785,0 -114.6281999457,43.9920900834,0 -114.6281071480,43.9922157779,0 -114.6281976411,43.9921996927,0 -114.6285734734,43.9921947051,0 -114.6290221990,43.9922779146,0 -114.6293388358,43.9925672450,0 -114.6293389489,43.9925874212,0 -114.6295671442,43.9925643766,0 -114.6297958046,43.9927429003,0 -114.6295502610,43.9929365078,0 -114.6296638534,43.9931758602,0 -114.6296356535,43.9933625543,0 -114.6294591182,43.9934043702,0 -114.6295267750,43.9934779148,0 -114.6300361810,43.9936285428,0 -114.6303307350,43.9935801208,0 -114.6308875550,43.9935064678,0 -114.6313202690,43.9933425588,0 -114.6318994400,43.9932566478,0 -114.6322996150,43.9934695918,0 -114.6327026960,43.9938108818,0 -114.6332751710,43.9942905378,0 -114.6335821290,43.9947020728,0 -114.6336549030,43.9947216178,0 -114.6336246690,43.9947591058,0 -114.6337976760,43.9949910508,0 -114.6338505440,43.9956049028,0 -114.6337911070,43.9962534678,0 -114.6335869270,43.9969692218,0 -114.6328409050,43.9979561088,0 -114.6315937010,43.9988863158,0 -114.6304851310,43.9991446528,0 -114.6293874710,43.9992255688,0 -114.6288825810,43.9992254108,0 -114.6285137990,43.9992252938,0 -114.6276849810,43.9992250268,0 -114.6273886640,43.9992173756,0 -114.6273105885,43.9993210298,0 -114.6271840129,43.9992573880,0 -114.6270298725,43.9993891107,0 -114.6271646903,43.9995432551,0 -114.6270467287,43.9997732959,0 -114.6268717128,43.9997788588,0 -114.6268697663,43.9998217208,0 -114.6265817333,43.9998493282,0 -114.6265575175,43.9998379692,0 -114.6263608971,43.9998903740,0 -114.6263442821,43.9999079235,0 -114.6263238527,44.0000290504,0 -114.6262198608,44.0000993505,0 -114.6261785096,44.0000876276,0 -114.6261201541,44.0001057221,0 -114.6261242312,44.0001725753,0 -114.6261049394,44.0002123838,0 -114.6259997670,44.0002015804,0 -114.6259798002,44.0002723232,0 -114.6258243212,44.0003201399,0 -114.6256034699,44.0002699889,0 -114.6255477303,44.0001203416,0 -114.6254479319,44.0001235124,0 -114.6254073055,43.9999915384,0 -114.6254394056,43.9999622972,0 -114.6254381025,43.9999594803,0 -114.6252583824,43.9999467373,0 -114.6251081893,43.9998592445,0 -114.6251010778,43.9997426024,0 -114.6251224745,43.9996742622,0 -114.6251959199,43.9996433083,0 -114.6252019112,43.9995744812,0 -114.6251582849,43.9995655017,0 -114.6249348280,43.9994725559,0 -114.6248505671,43.9993894802,0 -114.6246924794,43.9993945019,0 -114.6246430080,43.9995876529,0 -114.6245657433,43.9996734777,0 -114.6245224292,43.9996660141,0 -114.6245042585,43.9997369571,0 -114.6244573472,43.9998061076,0 -114.6242780018,43.9997995021,0 -114.6241273595,43.9997455057,0 -114.6241256779,43.9997547400,0 -114.6240123287,43.9998440924,0 -114.6238414030,43.9998365679,0 -114.6238130407,43.9999083646,0 -114.6235174949,43.9999320420,0 -114.6235276936,43.9997745053,0 -114.6235408088,43.9997628620,0 -114.6234047352,43.9997415806,0 -114.6233414827,43.9995946460,0 -114.6233855505,43.9995637631,0 -114.6233539592,43.9995227646,0 -114.6233246367,43.9993664828,0 -114.6234840964,43.9991980652,0 -114.6234048650,43.9991456911,0 -114.6233063286,43.9991959677,0 -114.6231314799,43.9991780022,0 -114.6231110535,43.9990658258,0 -114.6229643662,43.9989777436,0 -114.6228036732,43.9989399692,0 -114.6228099238,43.9988784017,0 -114.6224325619,43.9988800995,0 -114.6222672364,43.9988238381,0 -114.6221011634,43.9987552983,0 -114.6220001349,43.9986354861,0 -114.6218927499,43.9984113094,0 -114.6217267742,43.9984842378,0 -114.6215237889,43.9985091330,0 -114.6213695870,43.9984955740,0 -114.6213523161,43.9984855119,0 -114.6212590381,43.9985070948,0 -114.6210957413,43.9984265244,0 -114.6210655567,43.9982559772,0 -114.6213352610,43.9982571504,0 -114.6214122932,43.9982174258,0 -114.6214726957,43.9982059200,0 -114.6214923658,43.9979732071,0 -114.6213526155,43.9979645335,0 -114.6211404909,43.9978693568,0 -114.6211379885,43.9976499410,0 -114.6213073696,43.9975652349,0 -114.6213933145,43.9974860647,0 -114.6215641090,43.9974358221,0 -114.6215637217,43.9974357839,0 -114.6214149754,43.9972689996,0 -114.6212884372,43.9971415435,0 -114.6210543553,43.9970970094,0 -114.6210579997,43.9970169313,0 -114.6211229387,43.9969748435,0 -114.6210985940,43.9969503219,0 -114.6210449193,43.9968645804,0 -114.6209244548,43.9969227538,0 -114.6205795187,43.9969952082,0 -114.6203890613,43.9969458925,0 -114.6200486021,43.9969495652,0 -114.6200555959,43.9969683480,0 -114.6202644866,43.9971475180,0 -114.6204861908,43.9972119445,0 -114.6207938849,43.9973879787,0 -114.6206738027,43.9976919227,0 -114.6205421369,43.9977598203,0 -114.6206163144,43.9978088582,0 -114.6206894925,43.9980352097,0 -114.6205659345,43.9982820955,0 -114.6203014457,43.9984905763,0 -114.6200703974,43.9985979509,0 -114.6202569280,43.9987349541,0 -114.6205998082,43.9988384120,0 -114.6206202750,43.9988818680,0 -114.6206848754,43.9988492301,0 -114.6209899727,43.9989824699,0 -114.6211782441,43.9991480004,0 -114.6214103821,43.9993835989,0 -114.6214879096,43.9996812721,0 -114.6214553380,43.9997966425,0 -114.6217921441,43.9998002450,0 -114.6217682619,44.0000582605,0 -114.6214030721,44.0001078208,0 -114.6213985665,44.0002266180,0 -114.6210728334,44.0002965053,0 -114.6209422833,44.0002602648,0 -114.6208758119,44.0004446596,0 -114.6207229338,44.0005352630,0 -114.6206011087,44.0008106780,0 -114.6207335755,44.0010351481,0 -114.6211168617,44.0011516144,0 -114.6215123134,44.0014677824,0 -114.6215837625,44.0016656039,0 -114.6223110512,44.0022284943,0 -114.6224074806,44.0025112747,0 -114.6223295294,44.0028567590,0 -114.6219772891,44.0029251084,0 -114.6220074796,44.0030956551,0 -114.6219234423,44.0033412878,0 -114.6217345103,44.0034902052,0 -114.6215842329,44.0036236035,0 -114.6216333160,44.0037792585,0 -114.6215236620,44.0039127675,0 -114.6215750639,44.0040375898,0 -114.6214058913,44.0041858796,0 -114.6213038741,44.0041726214,0 -114.6210356741,44.0043699080,0 -114.6209490249,44.0045727467,0 -114.6210419769,44.0047984703,0 -114.6209605403,44.0050868959,0 -114.6209431757,44.0051027109,0 -114.6210224887,44.0052056379,0 -114.6209744217,44.0052833876,0 -114.6207831096,44.0052484927,0 -114.6207166558,44.0053090158,0 -114.6205446472,44.0054965171,0 -114.6207352434,44.0056911551,0 -114.6205642195,44.0057598114,0 -114.6207092756,44.0058380567,0 -114.6207158442,44.0058632755,0 -114.6208774228,44.0058581485,0 -114.6209428676,44.0060656889,0 -114.6212008793,44.0064005110,0 -114.6212926770,44.0066072148,0 -114.6216948951,44.0067087862,0 -114.6216572567,44.0069577100,0 -114.6216688443,44.0071479031,0 -114.6222039821,44.0072643099,0 -114.6223806340,44.0075635998,0 -114.6224495634,44.0078281969,0 -114.6226514110,44.0081076303,0 -114.6224750628,44.0082466214,0 -114.6225680272,44.0084723432,0 -114.6226463290,44.0086199240,0 -114.6223120808,44.0086591192,0 -114.6221333360,44.0086505011,0 -114.6221240029,44.0088223022,0 -114.6225687343,44.0088990008,0 -114.6229854923,44.0090400438,0 -114.6233103380,44.0092124866,0 -114.6236300050,44.0094675280,0 -114.6238595295,44.0094951268,0 -114.6240735118,44.0097629486,0 -114.6242653079,44.0098272623,0 -114.6245230590,44.0097340494,0 -114.6247209921,44.0095776139,0 -114.6248472018,44.0096289903,0 -114.6248698738,44.0098408549,0 -114.6247334941,44.0101404267,0 -114.6246237073,44.0103331978,0 -114.6247824400,44.0104557150,0 -114.6247841352,44.0105532187,0 -114.6248153984,44.0105854237,0 -114.6249014369,44.0106393825,0 -114.6249843196,44.0107793357,0 -114.6249667809,44.0108644074,0 -114.6249144482,44.0109709432,0 -114.6247678147,44.0111200764,0 -114.6246602683,44.0110917708,0 -114.6245307842,44.0112396745,0 -114.6243794217,44.0112321531,0 -114.6243573536,44.0114115048,0 -114.6244900460,44.0116931313,0 -114.6245832737,44.0118688208,0 -114.6242281646,44.0119992006,0 -114.6240210918,44.0118509467,0 -114.6238564472,44.0118139843,0 -114.6239359815,44.0119090246,0 -114.6237913402,44.0119797727,0 -114.6238701548,44.0120820312,0 -114.6235249912,44.0121049025,0 -114.6234951335,44.0120582002,0 -114.6232933024,44.0120866462,0 -114.6233478927,44.0123528060,0 -114.6235125839,44.0124525495,0 -114.6237373711,44.0123659638,0 -114.6237494340,44.0126538822,0 -114.6235182598,44.0128773200,0 -114.6235598235,44.0129564151,0 -114.6235855943,44.0130201334,0 -114.6239389820,44.0129293556,0 -114.6241574779,44.0129218889,0 -114.6242276997,44.0130896651,0 -114.6243399602,44.0131554487,0 -114.6243428919,44.0132702997,0 -114.6241761629,44.0134054838,0 -114.6239912895,44.0134917603,0 -114.6239656756,44.0137212467,0 -114.6237445648,44.0137759090,0 -114.6235643500,44.0137762123,0 -114.6235748637,44.0138057461,0 -114.6234987211,44.0138143115,0 -114.6235256115,44.0138783099,0 -114.6234120761,44.0139221709,0 -114.6234261236,44.0139403964,0 -114.6232912426,44.0140018476,0 -114.6232793039,44.0141308552,0 -114.6235664611,44.0142932414,0 -114.6234231200,44.0145407582,0 -114.6234085724,44.0146269725,0 -114.6235169692,44.0147807430,0 -114.6236442627,44.0149196213,0 -114.6234399560,44.0151404133,0 -114.6234597300,44.0152163018,0 -114.6233255035,44.0152987251,0 -114.6231940535,44.0152640095,0 -114.6231933731,44.0152789726,0 -114.6230602579,44.0153324068,0 -114.6230066856,44.0153090197,0 -114.6229751356,44.0153236792,0 -114.6227934571,44.0153209964,0 -114.6227422172,44.0153913171,0 -114.6228462657,44.0154737660,0 -114.6229881076,44.0155264308,0 -114.6230526242,44.0156101347,0 -114.6231025928,44.0157800528,0 -114.6231482132,44.0158786486,0 -114.6232626999,44.0161322704,0 -114.6233856471,44.0161998267,0 -114.6235077248,44.0162531184,0 -114.6235818109,44.0164937307,0 -114.6234771286,44.0167257278,0 -114.6233474601,44.0168727658,0 -114.6233390005,44.0170588312,0 -114.6233096969,44.0171626148,0 -114.6234105597,44.0172655870,0 -114.6232516350,44.0173659138,0 -114.6230331459,44.0173013910,0 -114.6230209760,44.0171791846,0 -114.6229252399,44.0171373922,0 -114.6228825566,44.0171710292,0 -114.6227649378,44.0171788217,0 -114.6227479080,44.0173434225,0 -114.6228828624,44.0173734474,0 -114.6230058119,44.0174410040,0 -114.6230496942,44.0175110710,0 -114.6234322230,44.0176132610,0 -114.6235380162,44.0177242380,0 -114.6234350715,44.0179847640,0 -114.6234257424,44.0181565648,0 -114.6236230027,44.0182520193,0 -114.6236451817,44.0183468039,0 -114.6235632791,44.0183751788,0 -114.6234487700,44.0183686249,0 -114.6233254060,44.0184598840,0 -114.6232198498,44.0186776165,0 -114.6230747583,44.0188966043,0 -114.6229442147,44.0190293776,0 -114.6230113446,44.0191558746,0 -114.6231618937,44.0193511832,0 -114.6230141911,44.0195273776,0 -114.6232042764,44.0197214307,0 -114.6231132667,44.0198529489,0 -114.6232431805,44.0200346205,0 -114.6232483996,44.0201202071,0 -114.6230550713,44.0201978059,0 -114.6227852805,44.0203207082,0 -114.6225791407,44.0205130494,0 -114.6227262132,44.0206513007,0 -114.6228947939,44.0208174529,0 -114.6229301106,44.0208632685,0 -114.6231093091,44.0208885229,0 -114.6231427224,44.0209904881,0 -114.6232241292,44.0210213768,0 -114.6233444772,44.0210461395,0 -114.6233927124,44.0211875283,0 -114.6233008311,44.0213047822,0 -114.6230627438,44.0212980500,0 -114.6226037282,44.0212411633,0 -114.6222874383,44.0212512042,0 -114.6221182212,44.0213994963,0 -114.6218879596,44.0215211417,0 -114.6220710912,44.0216010810,0 -114.6222085993,44.0215824240,0 -114.6222739916,44.0216803925,0 -114.6222053543,44.0218540759,0 -114.6220661064,44.0218442041,0 -114.6219381631,44.0220197698,0 -114.6217834942,44.0220818473,0 -114.6216425068,44.0220434461,0 -114.6213881259,44.0220943957,0 -114.6212799486,44.0222693334,0 -114.6215619244,44.0223461366,0 -114.6216470851,44.0224434781,0 -114.6214493997,44.0224497522,0 -114.6211493939,44.0224021050,0 -114.6209156489,44.0224666908,0 -114.6206252055,44.0225759513,0 -114.6204309964,44.0226392816,0 -114.6205402709,44.0228073190,0 -114.6209391219,44.0228518312,0 -114.6211530997,44.0227878727,0 -114.6215304431,44.0228044813,0 -114.6217565941,44.0229402239,0 -114.6216140963,44.0232020035,0 -114.6210994662,44.0235327611,0 -114.6208200933,44.0234987503,0 -114.6205948115,44.0233772703,0 -114.6203738769,44.0233271121,0 -114.6201924803,44.0232756991,0 -114.6200343296,44.0232807165,0 -114.6199328779,44.0232410589,0 -114.6198674874,44.0231430890,0 -114.6200178154,44.0230096915,0 -114.6202317948,44.0229457347,0 -114.6202248412,44.0228316189,0 -114.6200399696,44.0227231477,0 -114.6198303362,44.0228584266,0 -114.6196730556,44.0228777079,0 -114.6193817387,44.0229727009,0 -114.6191127965,44.0231098596,0 -114.6191090616,44.0231099781,0 -114.6192091008,44.0231700281,0 -114.6192858931,44.0231596112,0 -114.6193690238,44.0232236706,0 -114.6194131963,44.0232984937,0 -114.6193920519,44.0233849167,0 -114.6194803974,44.0235345629,0 -114.6194586737,44.0236114762,0 -114.6193532391,44.0236148205,0 -114.6192173907,44.0235524332,0 -114.6191118385,44.0235160149,0 -114.6191491181,44.0236065178,0 -114.6190611390,44.0237015723,0 -114.6189323958,44.0236872026,0 -114.6188968565,44.0236648995,0 -114.6188822592,44.0236869267,0 -114.6187333751,44.0238440969,0 -114.6186508234,44.0237895467,0 -114.6186403972,44.0236183728,0 -114.6187473449,44.0235296456,0 -114.6187016523,44.0232578040,0 -114.6187732707,44.0230340990,0 -114.6188105754,44.0229468027,0 -114.6188875407,44.0229443618,0 -114.6191160554,44.0228382074,0 -114.6193849964,44.0227010487,0 -114.6197167182,44.0226190660,0 -114.6196702284,44.0225062044,0 -114.6193539308,44.0225162374,0 -114.6193237344,44.0223456906,0 -114.6194327867,44.0221850191,0 -114.6194197518,44.0219710518,0 -114.6192872380,44.0217465822,0 -114.6190191698,44.0218980050,0 -114.6188644979,44.0219600787,0 -114.6186796315,44.0218516051,0 -114.6186383571,44.0218243299,0 -114.6184502294,44.0219875083,0 -114.6181434896,44.0221544475,0 -114.6178571755,44.0220063131,0 -114.6178559165,44.0220044265,0 -114.6176980636,44.0220094313,0 -114.6177080197,44.0220591233,0 -114.6175301021,44.0220770658,0 -114.6172530802,44.0221473572,0 -114.6172325700,44.0221575367,0 -114.6172341372,44.0221832778,0 -114.6174129226,44.0221919021,0 -114.6176175565,44.0222997511,0 -114.6177491969,44.0225099583,0 -114.6177622260,44.0227239259,0 -114.6176034163,44.0230433859,0 -114.6174135449,44.0231780338,0 -114.6175847246,44.0233869876,0 -114.6179079769,44.0234910754,0 -114.6179562017,44.0236324668,0 -114.6179066854,44.0236679344,0 -114.6182759526,44.0237408399,0 -114.6183477947,44.0238277403,0 -114.6183757943,44.0238268524,0 -114.6185408975,44.0239359532,0 -114.6184802134,44.0240236298,0 -114.6183364322,44.0240312504,0 -114.6181494033,44.0241021538,0 -114.6180947475,44.0242618300,0 -114.6184121844,44.0242897344,0 -114.6187163274,44.0240800008,0 -114.6189509502,44.0240296837,0 -114.6191186620,44.0241815771,0 -114.6189572494,44.0244582453,0 -114.6189579830,44.0244702882,0 -114.6190277563,44.0244615295,0 -114.6191837834,44.0244439862,0 -114.6192302264,44.0242850178,0 -114.6194228772,44.0242789072,0 -114.6195397612,44.0241652497,0 -114.6198706956,44.0241785718,0 -114.6199058836,44.0242982301,0 -114.6199634081,44.0243100673,0 -114.6199823822,44.0244047456,0 -114.6196426126,44.0244631643,0 -114.6196169211,44.0244424358,0 -114.6195280780,44.0244985098,0 -114.6195142154,44.0246349588,0 -114.6194462348,44.0247502764,0 -114.6195101392,44.0247551338,0 -114.6198325329,44.0248449512,0 -114.6199383333,44.0249559312,0 -114.6199109633,44.0251568881,0 -114.6199798331,44.0253119157,0 -114.6204217171,44.0254122327,0 -114.6205001515,44.0257241690,0 -114.6203756733,44.0259567912,0 -114.6199939636,44.0258688571,0 -114.6198038674,44.0256747991,0 -114.6197275678,44.0255834050,0 -114.6195201348,44.0255477047,0 -114.6194016890,44.0256212140,0 -114.6192199788,44.0255948918,0 -114.6191367770,44.0256786965,0 -114.6189892287,44.0256952862,0 -114.6189737258,44.0256690270,0 -114.6189107935,44.0257115458,0 -114.6186965883,44.0256937354,0 -114.6185181017,44.0254226035,0 -114.6184140399,44.0252536772,0 -114.6184073092,44.0251431738,0 -114.6184016084,44.0249096190,0 -114.6184168281,44.0247402316,0 -114.6181873549,44.0246811100,0 -114.6182315824,44.0249094305,0 -114.6182109412,44.0251125557,0 -114.6180542864,44.0250662923,0 -114.6180854895,44.0251779822,0 -114.6179283182,44.0252567769,0 -114.6176811128,44.0251169922,0 -114.6175204147,44.0250805061,0 -114.6175136404,44.0251471629,0 -114.6174357895,44.0252162395,0 -114.6174603485,44.0252554541,0 -114.6174188868,44.0253877789,0 -114.6172097826,44.0254777780,0 -114.6172369824,44.0256916911,0 -114.6172888020,44.0257097540,0 -114.6173610709,44.0258122713,0 -114.6172757608,44.0259293121,0 -114.6171726381,44.0259706932,0 -114.6170857965,44.0261111007,0 -114.6171672181,44.0261341793,0 -114.6171970181,44.0261754262,0 -114.6172632985,44.0261583798,0 -114.6173716332,44.0262025856,0 -114.6173813113,44.0262572523,0 -114.6174170803,44.0262612450,0 -114.6174084211,44.0263731781,0 -114.6172855354,44.0263882396,0 -114.6171871391,44.0263772562,0 -114.6171562328,44.0264438184,0 -114.6170578870,44.0264303786,0 -114.6169461735,44.0264873455,0 -114.6169098299,44.0264279841,0 -114.6168087583,44.0264469937,0 -114.6167789129,44.0263324298,0 -114.6167003021,44.0263276300,0 -114.6166747922,44.0263008698,0 -114.6164831519,44.0263195888,0 -114.6163219931,44.0263061858,0 -114.6162631635,44.0263306162,0 -114.6161204746,44.0265073644,0 -114.6159833037,44.0266347301,0 -114.6156614741,44.0266695319,0 -114.6154442768,44.0266026027,0 -114.6154508320,44.0264301688,0 -114.6157681764,44.0263216984,0 -114.6160673817,44.0261953492,0 -114.6163484475,44.0260511213,0 -114.6162820744,44.0258010364,0 -114.6163929701,44.0256622013,0 -114.6165054110,44.0256683408,0 -114.6165250815,44.0256185814,0 -114.6167227840,44.0254901949,0 -114.6167066934,44.0253980613,0 -114.6165022775,44.0252933987,0 -114.6164338424,44.0253533591,0 -114.6161819553,44.0254167004,0 -114.6160641219,44.0251558607,0 -114.6162704549,44.0247212668,0 -114.6163386124,44.0245610012,0 -114.6164297808,44.0241663570,0 -114.6165225054,44.0240605612,0 -114.6164539576,44.0240088051,0 -114.6164502005,44.0239470859,0 -114.6163750728,44.0239678404,0 -114.6161022452,44.0240955871,0 -114.6159338256,44.0241085551,0 -114.6159274524,44.0241712486,0 -114.6158644489,44.0242208853,0 -114.6155903418,44.0242149397,0 -114.6155146334,44.0242568667,0 -114.6152009508,44.0242852581,0 -114.6151313229,44.0242548605,0 -114.6151069124,44.0243686912,0 -114.6150319613,44.0243867439,0 -114.6148674068,44.0243606007,0 -114.6147075072,44.0242324015,0 -114.6147112097,44.0241146979,0 -114.6148488401,44.0240554643,0 -114.6150318793,44.0240496656,0 -114.6150616632,44.0239575204,0 -114.6153094511,44.0239278401,0 -114.6152706682,44.0238461230,0 -114.6153045187,44.0236882687,0 -114.6155346846,44.0235959091,0 -114.6152743587,44.0235030867,0 -114.6151109985,44.0234225100,0 -114.6150655327,44.0234096213,0 -114.6149472701,44.0235605009,0 -114.6149667995,44.0238814533,0 -114.6148197287,44.0237973424,0 -114.6147919336,44.0238676504,0 -114.6145522940,44.0239921095,0 -114.6143666083,44.0240225950,0 -114.6141823344,44.0239361677,0 -114.6141931295,44.0238995882,0 -114.6140881783,44.0238537677,0 -114.6141306182,44.0237662642,0 -114.6141974167,44.0236866050,0 -114.6144093207,44.0236368133,0 -114.6145507313,44.0237369483,0 -114.6147291676,44.0236920793,0 -114.6148118601,44.0235052404,0 -114.6148518904,44.0233371593,0 -114.6146854346,44.0232644872,0 -114.6145357697,44.0230834315,0 -114.6146869778,44.0229643053,0 -114.6148029873,44.0229177541,0 -114.6148510108,44.0227304361,0 -114.6148456632,44.0226425457,0 -114.6147053923,44.0226054939,0 -114.6146453058,44.0226743926,0 -114.6144558431,44.0227744633,0 -114.6141857186,44.0227986976,0 -114.6140927868,44.0226997328,0 -114.6141294957,44.0225888228,0 -114.6144425154,44.0225553909,0 -114.6145957859,44.0225111475,0 -114.6145842974,44.0224164556,0 -114.6147703515,44.0223921090,0 -114.6149416308,44.0224051358,0 -114.6150049384,44.0225719092,0 -114.6150589198,44.0225666370,0 -114.6151395481,44.0226794091,0 -114.6152169573,44.0225870922,0 -114.6153989022,44.0224952144,0 -114.6154604246,44.0225085031,0 -114.6154609316,44.0225080533,0 -114.6156518184,44.0223813282,0 -114.6156415639,44.0223766721,0 -114.6156139825,44.0222489176,0 -114.6161364478,44.0220465649,0 -114.6160728013,44.0219771216,0 -114.6156756950,44.0219611211,0 -114.6152564115,44.0222316629,0 -114.6149813869,44.0222689602,0 -114.6148145590,44.0221313248,0 -114.6146468640,44.0219794245,0 -114.6146470439,44.0219778148,0 -114.6144638872,44.0220138165,0 -114.6143474709,44.0220645386,0 -114.6142267708,44.0220448444,0 -114.6141654171,44.0219292013,0 -114.6142888685,44.0218155438,0 -114.6141970251,44.0217282600,0 -114.6141765684,44.0217370644,0 -114.6139951815,44.0216856412,0 -114.6138876628,44.0215461259,0 -114.6136298058,44.0215400001,0 -114.6134484200,44.0214885760,0 -114.6134388770,44.0213316656,0 -114.6138574827,44.0213755771,0 -114.6141377103,44.0214238700,0 -114.6142871798,44.0212762152,0 -114.6143730050,44.0210591160,0 -114.6141494805,44.0209661515,0 -114.6140230623,44.0208415270,0 -114.6138047448,44.0208341493,0 -114.6136655000,44.0208242671,0 -114.6133956856,44.0209471479,0 -114.6131267376,44.0210842927,0 -114.6128706174,44.0211066942,0 -114.6126831620,44.0209554167,0 -114.6124372703,44.0208202809,0 -114.6123710277,44.0207080415,0 -114.6124431621,44.0205914215,0 -114.6121972725,44.0204562850,0 -114.6121277393,44.0206156988,0 -114.6121165045,44.0206155145,0 -114.6121518757,44.0207562829,0 -114.6121694793,44.0208501552,0 -114.6118974248,44.0208759359,0 -114.6117306714,44.0208726296,0 -114.6116959866,44.0206934529,0 -114.6118073068,44.0204957469,0 -114.6118019107,44.0204687999,0 -114.6118938141,44.0203515545,0 -114.6121662308,44.0202714710,0 -114.6125022870,44.0202608324,0 -114.6129415200,44.0203183863,0 -114.6134409253,44.0203883252,0 -114.6137546110,44.0203355152,0 -114.6131683269,44.0201397002,0 -114.6130186751,44.0199586420,0 -114.6127762563,44.0198805652,0 -114.6124015337,44.0199067207,0 -114.6121736806,44.0197424291,0 -114.6120850705,44.0195880215,0 -114.6120007965,44.0195049368,0 -114.6119895238,44.0193194969,0 -114.6119834539,44.0192196446,0 -114.6121492228,44.0190143084,0 -114.6124585665,44.0188901792,0 -114.6128220076,44.0186785839,0 -114.6126336932,44.0185130414,0 -114.6120380688,44.0184890209,0 -114.6117947902,44.0183966771,0 -114.6118849565,44.0182509025,0 -114.6123181038,44.0182086071,0 -114.6127082467,44.0181105034,0 -114.6127415594,44.0180760351,0 -114.6126301363,44.0178958899,0 -114.6127924443,44.0177615814,0 -114.6129329361,44.0177663309,0 -114.6129211695,44.0177035843,0 -114.6130293645,44.0175286539,0 -114.6130558888,44.0173134332,0 -114.6129638113,44.0171019677,0 -114.6126603692,44.0169972386,0 -114.6122589608,44.0169099020,0 -114.6120122203,44.0167605000,0 -114.6119227485,44.0165918273,0 -114.6120696111,44.0164013818,0 -114.6120996069,44.0162432196,0 -114.6122147386,44.0161824068,0 -114.6124888704,44.0161308524,0 -114.6124517610,44.0158461860,0 -114.6124550521,44.0155745326,0 -114.6121722523,44.0154834407,0 -114.6118989901,44.0155492589,0 -114.6116680343,44.0159853310,0 -114.6112331688,44.0159990941,0 -114.6110767694,44.0160326278,0 -114.6112694056,44.0162694965,0 -114.6111164729,44.0163600887,0 -114.6109592057,44.0163793576,0 -114.6107631033,44.0160854298,0 -114.6103436702,44.0160272409,0 -114.6101975042,44.0159032368,0 -114.6100076370,44.0160378723,0 -114.6097558693,44.0161315894,0 -114.6095075666,44.0162823647,0 -114.6093993630,44.0164572921,0 -114.6094201572,44.0167996438,0 -114.6097407605,44.0168609626,0 -114.6099264620,44.0169837164,0 -114.6099609607,44.0172255901,0 -114.6096920204,44.0173627265,0 -114.6094126815,44.0173286866,0 -114.6091290110,44.0172233226,0 -114.6088179355,44.0173189135,0 -114.6085111902,44.0174858269,0 -114.6083480110,44.0177339521,0 -114.6085011079,44.0179720758,0 -114.6087736769,44.0182207130,0 -114.6087223293,44.0186796828,0 -114.6083356402,44.0188348320,0 -114.6081388300,44.0188553474,0 -114.6079754920,44.0187747597,0 -114.6080037673,44.0185880689,0 -114.6081126903,44.0180986947,0 -114.6080773323,44.0178425556,0 -114.6078271334,44.0176360856,0 -114.6077617692,44.0175381078,0 -114.6074342361,44.0173626661,0 -114.6071901029,44.0172560474,0 -114.6068728159,44.0169230674,0 -114.6066389290,44.0166589109,0 -114.6066628791,44.0164008968,0 -114.6069722220,44.0162767824,0 -114.6073030621,44.0161805717,0 -114.6073845775,44.0158921535,0 -114.6074575826,44.0157898011,0 -114.6075305875,44.0156874486,0 -114.6077256555,44.0156384053,0 -114.6079094647,44.0154039207,0 -114.6080598020,44.0152705386,0 -114.6079084465,44.0150609433,0 -114.6080811476,44.0149697303,0 -114.6083363778,44.0149330756,0 -114.6085770384,44.0149826335,0 -114.6089336987,44.0149856460,0 -114.6090608013,44.0147958292,0 -114.6088853463,44.0145155371,0 -114.6085475888,44.0144976346,0 -114.6084005643,44.0143593633,0 -114.6082020369,44.0143513490,0 -114.6080783965,44.0145982236,0 -114.6078885283,44.0147328556,0 -114.6076092026,44.0146988107,0 -114.6075412446,44.0145580386,0 -114.6076726806,44.0144395466,0 -114.6079029467,44.0143179298,0 -114.6080085532,44.0141002097,0 -114.6083617439,44.0140461654,0 -114.6084458501,44.0138005407,0 -114.6086168145,44.0136807976,0 -114.6089141693,44.0136856857,0 -114.6092253847,44.0139188076,0 -114.6093946151,44.0137705342,0 -114.6095621119,44.0135937312,0 -114.6096633791,44.0133046864,0 -114.6093771290,44.0131565284,0 -114.6090867068,44.0132657588,0 -114.6088529824,44.0133303191,0 -114.6084774324,44.0133421958,0 -114.6082539462,44.0132492184,0 -114.6082993866,44.0130191084,0 -114.6082511949,44.0128777116,0 -114.6079599058,44.0129726745,0 -114.6078139034,44.0131773797,0 -114.6073601566,44.0132060171,0 -114.6069209807,44.0131484396,0 -114.6064907845,44.0132190478,0 -114.6065729706,44.0134041980,0 -114.6063997183,44.0135406843,0 -114.6062826029,44.0135143194,0 -114.6062986867,44.0135690697,0 -114.6061722029,44.0135915198,0 -114.6060601742,44.0135812416,0 -114.6059879431,44.0137639033,0 -114.6060180954,44.0139344552,0 -114.6059038266,44.0140095266,0 -114.6055884347,44.0140337847,0 -114.6052387024,44.0141448794,0 -114.6049181178,44.0140835473,0 -114.6049482673,44.0142540996,0 -114.6047566622,44.0143601971,0 -114.6045160068,44.0143106310,0 -114.6043535514,44.0142443022,0 -114.6041000512,44.0143094775,0 -114.6036436981,44.0142953061,0 -114.6033873664,44.0141380174,0 -114.6032758297,44.0141933613,0 -114.6028916240,44.0140625721,0 -114.6025908079,44.0140006093,0 -114.6021782159,44.0139398594,0 -114.6024069504,44.0141485597,0 -114.6026579805,44.0143693075,0 -114.6025343167,44.0146161770,0 -114.6022610464,44.0146819723,0 -114.6020496684,44.0147886894,0 -114.6018400187,44.0149239358,0 -114.6015039887,44.0149345420,0 -114.6012351226,44.0148591053,0 -114.6008569090,44.0151272428,0 -114.5998600470,44.0153444924,0 -114.5991355918,44.0154816812,0 -114.5985873064,44.0155847258,0 -114.5983363847,44.0156926831,0 -114.5982928140,44.0157047133,0 -114.5985160886,44.0159577907,0 -114.5986321994,44.0162399704,0 -114.5985222356,44.0163863589,0 -114.5981148030,44.0161991178,0 -114.5980259988,44.0157708656,0 -114.5977047104,44.0157268926,0 -114.5975147193,44.0155327936,0 -114.5974657108,44.0154822323,0 -114.5973891888,44.0154925984,0 -114.5973000298,44.0154277488,0 -114.5973232447,44.0153576652,0 -114.5970806215,44.0152320529,0 -114.5970530840,44.0151042923,0 -114.5973048693,44.0150106027,0 -114.5975223019,44.0150037479,0 -114.5977105640,44.0151693173,0 -114.5979005545,44.0153634160,0 -114.5980970769,44.0153622863,0 -114.5981084625,44.0153388229,0 -114.5984171162,44.0152576297,0 -114.5984328720,44.0153603553,0 -114.5984548856,44.0153602286,0 -114.5986703097,44.0152574627,0 -114.5985518388,44.0150857194,0 -114.5982586449,44.0150715243,0 -114.5981262071,44.0149957381,0 -114.5980935817,44.0147384271,0 -114.5982887973,44.0146806454,0 -114.5983243108,44.0145612890,0 -114.5986273959,44.0145517312,0 -114.5988228242,44.0147266008,0 -114.5988154960,44.0147544873,0 -114.5988323511,44.0147562222,0 -114.5988940052,44.0149567488,0 -114.5989291691,44.0150512493,0 -114.5989698566,44.0150887777,0 -114.5989730360,44.0150866303,0 -114.5994637445,44.0150139843,0 -114.6000747789,44.0149661241,0 -114.6005981036,44.0147781076,0 -114.6009220325,44.0145677970,0 -114.6010370683,44.0144825227,0 -114.6007226119,44.0144589785,0 -114.6006413272,44.0144218647,0 -114.6006374094,44.0144425017,0 -114.6006119256,44.0145326329,0 -114.6004120364,44.0145597169,0 -114.6003709313,44.0146202505,0 -114.6001206233,44.0146124697,0 -114.5999655213,44.0145624892,0 -114.5999824508,44.0144384865,0 -114.5999480969,44.0143626164,0 -114.5996740516,44.0142355784,0 -114.5993886840,44.0141016594,0 -114.5995166800,44.0139261171,0 -114.5998414725,44.0137300744,0 -114.6001301871,44.0135923373,0 -114.6005461385,44.0135935054,0 -114.6010231166,44.0136213304,0 -114.6012766177,44.0135561620,0 -114.6010444978,44.0133205222,0 -114.6004798165,44.0131525439,0 -114.6002065502,44.0132183341,0 -114.5997699714,44.0132035233,0 -114.5996883156,44.0131632230,0 -114.5994029533,44.0130293039,0 -114.5991666264,44.0130510503,0 -114.5989826865,44.0129568073,0 -114.5991682513,44.0127508655,0 -114.5995627033,44.0127241313,0 -114.5994801844,44.0126695660,0 -114.5991930973,44.0125071166,0 -114.5990023262,44.0125409651,0 -114.5990083715,44.0126407967,0 -114.5988133051,44.0126898251,0 -114.5986482689,44.0125806933,0 -114.5987225928,44.0123334675,0 -114.5986979902,44.0121797221,0 -114.5984478477,44.0119732294,0 -114.5978849130,44.0118337672,0 -114.5976554036,44.0116409143,0 -114.5970236811,44.0113464037,0 -114.5963739256,44.0110810421,0 -114.5958728886,44.0109824953,0 -114.5952858890,44.0107723182,0 -114.5946662648,44.0106775024,0 -114.5944591233,44.0105268146,0 -114.5940328414,44.0103544445,0 -114.5937413064,44.0103041372,0 -114.5934150009,44.0105303403,0 -114.5929483967,44.0106736617,0 -114.5928032126,44.0106437407,0 -114.5927425085,44.0106604994,0 -114.5926458378,44.0106992732,0 -114.5925647278,44.0107091983,0 -114.5925528179,44.0107795640,0 -114.5924285602,44.0108388345,0 -114.5921944323,44.0107723936,0 -114.5921603791,44.0106319937,0 -114.5921851239,44.0106184418,0 -114.5921256488,44.0105635706,0 -114.5921826274,44.0105186972,0 -114.5922871636,44.0105154064,0 -114.5923407774,44.0103669116,0 -114.5925902614,44.0103734391,0 -114.5925908321,44.0103276176,0 -114.5932542230,44.0101638091,0 -114.5935717844,44.0101337652,0 -114.5935618572,44.0100977281,0 -114.5937930003,44.0099904042,0 -114.5941066526,44.0099376494,0 -114.5943008520,44.0098743643,0 -114.5944323056,44.0097558870,0 -114.5943531709,44.0094296618,0 -114.5946032121,44.0093074489,0 -114.5947097231,44.0091040045,0 -114.5946809250,44.0089650672,0 -114.5945499598,44.0089944041,0 -114.5943276846,44.0089829528,0 -114.5942536794,44.0087987485,0 -114.5938417113,44.0087446841,0 -114.5938657162,44.0084866706,0 -114.5942635938,44.0085170153,0 -114.5949716967,44.0086296829,0 -114.5951487017,44.0085041997,0 -114.5955107286,44.0083130356,0 -114.5954117639,44.0080958939,0 -114.5953299334,44.0081404128,0 -114.5949561359,44.0081807737,0 -114.5948306482,44.0080703903,0 -114.5947171615,44.0078310000,0 -114.5946702590,44.0077200633,0 -114.5942711528,44.0077457795,0 -114.5941371156,44.0078214618,0 -114.5937040261,44.0078636860,0 -114.5935957185,44.0077098840,0 -114.5935165918,44.0073836579,0 -114.5935208339,44.0071262668,0 -114.5935834410,44.0070884793,0 -114.5935603449,44.0070384951,0 -114.5934004392,44.0066862286,0 -114.5929810859,44.0066279729,0 -114.5926485479,44.0066956113,0 -114.5922756190,44.0067502281,0 -114.5919172818,44.0067186319,0 -114.5917950885,44.0066812567,0 -114.5917346474,44.0068808435,0 -114.5916880090,44.0070077372,0 -114.5914396240,44.0070312332,0 -114.5912925530,44.0069339534,0 -114.5912746223,44.0068169310,0 -114.5914470920,44.0065382323,0 -114.5913301614,44.0064105316,0 -114.5911573630,44.0064440099,0 -114.5910759889,44.0063666083,0 -114.5911122135,44.0062609021,0 -114.5912810397,44.0062444461,0 -114.5912709895,44.0061815821,0 -114.5908593419,44.0059229869,0 -114.5904743539,44.0057778881,0 -114.5903188805,44.0061543742,0 -114.5906067746,44.0063311129,0 -114.5907159335,44.0064991831,0 -114.5904564703,44.0067931890,0 -114.5902683070,44.0069563223,0 -114.5904608308,44.0071932302,0 -114.5904488210,44.0073222369,0 -114.5902485944,44.0072856605,0 -114.5901170865,44.0070754167,0 -114.5899624574,44.0071157069,0 -114.5900077594,44.0071854582,0 -114.5899289983,44.0072474864,0 -114.5896497235,44.0072681820,0 -114.5896137644,44.0071103543,0 -114.5895439269,44.0070934477,0 -114.5894587214,44.0068975294,0 -114.5893937383,44.0068747067,0 -114.5891263469,44.0068216077,0 -114.5889443860,44.0067719721,0 -114.5888818605,44.0065832590,0 -114.5889202941,44.0063729177,0 -114.5890204924,44.0061975396,0 -114.5892428801,44.0061905449,0 -114.5891941115,44.0060081356,0 -114.5893036583,44.0059094094,0 -114.5894034034,44.0057710299,0 -114.5893847668,44.0057692899,0 -114.5892764743,44.0056154832,0 -114.5890822826,44.0056787595,0 -114.5887514669,44.0057749165,0 -114.5884077341,44.0056570974,0 -114.5880287802,44.0056118451,0 -114.5876489658,44.0055523265,0 -114.5875613386,44.0057408786,0 -114.5876627766,44.0061092838,0 -114.5871781488,44.0062817324,0 -114.5867574687,44.0062416811,0 -114.5867505341,44.0062873641,0 -114.5864975795,44.0063322203,0 -114.5863152517,44.0062764411,0 -114.5861321835,44.0062083830,0 -114.5861872805,44.0061328400,0 -114.5863059924,44.0061229582,0 -114.5864001860,44.0060931786,0 -114.5863085066,44.0059803487,0 -114.5864674478,44.0056609274,0 -114.5869177098,44.0055753146,0 -114.5871548740,44.0055678596,0 -114.5874607628,44.0053867383,0 -114.5876274441,44.0051957009,0 -114.5878826483,44.0051590929,0 -114.5884755539,44.0051404494,0 -114.5882478232,44.0049761055,0 -114.5882349082,44.0047621303,0 -114.5881455230,44.0045934358,0 -114.5885682613,44.0043800532,0 -114.5888595433,44.0042851401,0 -114.5889677887,44.0041102306,0 -114.5884109760,44.0040705733,0 -114.5882116225,44.0040482579,0 -114.5880010772,44.0038404968,0 -114.5878927920,44.0036866885,0 -114.5875826090,44.0037964854,0 -114.5874230022,44.0037537792,0 -114.5873992976,44.0037920808,0 -114.5875450253,44.0039188746,0 -114.5874666381,44.0040320562,0 -114.5873880247,44.0041257642,0 -114.5875070241,44.0041368770,0 -114.5875918749,44.0042831526,0 -114.5875989573,44.0044005166,0 -114.5873831009,44.0044229810,0 -114.5872403106,44.0045764131,0 -114.5870781817,44.0045893488,0 -114.5867487312,44.0045291524,0 -114.5866804034,44.0046567259,0 -114.5865550426,44.0047390572,0 -114.5863966892,44.0048145862,0 -114.5861860226,44.0049231155,0 -114.5858622341,44.0049568080,0 -114.5856741762,44.0049000045,0 -114.5854912962,44.0047489685,0 -114.5853824102,44.0045642510,0 -114.5852870105,44.0045133009,0 -114.5852659429,44.0045625423,0 -114.5848824475,44.0045622887,0 -114.5847293369,44.0044256266,0 -114.5846982672,44.0043343382,0 -114.5848302853,44.0042625304,0 -114.5849316214,44.0042266635,0 -114.5849015334,44.0041770804,0 -114.5849447628,44.0040919420,0 -114.5851053904,44.0040510678,0 -114.5849585919,44.0039878575,0 -114.5848439472,44.0039237986,0 -114.5844730252,44.0038493371,0 -114.5843014332,44.0038301231,0 -114.5841916155,44.0041288185,0 -114.5841161754,44.0041496408,0 -114.5837973966,44.0040919922,0 -114.5836864475,44.0039478536,0 -114.5835444686,44.0039262025,0 -114.5835154908,44.0039692742,0 -114.5832989067,44.0042274165,0 -114.5831222920,44.0043056758,0 -114.5832142193,44.0044547595,0 -114.5830448505,44.0046138517,0 -114.5827649026,44.0046349434,0 -114.5825426445,44.0046234685,0 -114.5825118456,44.0046964106,0 -114.5825829414,44.0047158096,0 -114.5825744120,44.0047624626,0 -114.5827059211,44.0047496539,0 -114.5827754574,44.0048579245,0 -114.5826836609,44.0049777578,0 -114.5824136446,44.0049690717,0 -114.5824036030,44.0050030420,0 -114.5821062715,44.0050185269,0 -114.5820844607,44.0049901907,0 -114.5819771314,44.0049978823,0 -114.5814344404,44.0051005390,0 -114.5814985843,44.0047305180,0 -114.5816857278,44.0046418548,0 -114.5820310839,44.0048142917,0 -114.5820411802,44.0047868337,0 -114.5823366609,44.0047406523,0 -114.5824376165,44.0045775581,0 -114.5824638703,44.0044475638,0 -114.5824625985,44.0043051751,0 -114.5821570693,44.0043055771,0 -114.5820763207,44.0042851536,0 -114.5820216712,44.0043502866,0 -114.5816025973,44.0043289768,0 -114.5806245084,44.0042007715,0 -114.5805120641,44.0040752128,0 -114.5806087799,44.0038792201,0 -114.5808809560,44.0037905492,0 -114.5809259970,44.0035555267,0 -114.5811529947,44.0034698126,0 -114.5807908687,44.0033968235,0 -114.5805220355,44.0032974205,0 -114.5802319635,44.0032718324,0 -114.5801076095,44.0031562564,0 -114.5801308128,44.0030170706,0 -114.5803053745,44.0029609695,0 -114.5803758585,44.0028128546,0 -114.5803742739,44.0027679245,0 -114.5800769911,44.0027921966,0 -114.5799428017,44.0027205613,0 -114.5799458974,44.0025679086,0 -114.5798472339,44.0024852389,0 -114.5797262327,44.0024209137,0 -114.5796883908,44.0023317446,0 -114.5797090654,44.0022604472,0 -114.5796452814,44.0022363852,0 -114.5796540219,44.0020783984,0 -114.5794929423,44.0018594371,0 -114.5792199103,44.0018772828,0 -114.5790402346,44.0017510357,0 -114.5789200958,44.0016556740,0 -114.5785587980,44.0016651430,0 -114.5783698245,44.0018239841,0 -114.5782180509,44.0020225864,0 -114.5780658769,44.0020265439,0 -114.5785276448,44.0024213108,0 -114.5786575852,44.0029020954,0 -114.5787517748,44.0031716849,0 -114.5790030555,44.0036748511,0 -114.5791697401,44.0037438560,0 -114.5792970710,44.0040448956,0 -114.5794204024,44.0043282922,0 -114.5792694692,44.0051460369,0 -114.5783167215,44.0050770632,0 -114.5775931374,44.0049916892,0 -114.5767173028,44.0048268072,0 -114.5763139822,44.0048500390,0 -114.5762742472,44.0049972594,0 -114.5761761013,44.0051682119,0 -114.5759371562,44.0054426464,0 -114.5755215865,44.0056376099,0 -114.5746388380,44.0052670317,0 -114.5743101429,44.0049417919,0 -114.5738755007,44.0045834974,0 -114.5735270531,44.0044512359,0 -114.5730961370,44.0043207915,0 -114.5726130381,44.0041373179,0 -114.5731444612,44.0046946972,0 -114.5730533642,44.0047794662,0 -114.5728873511,44.0049281807,0 -114.5725776980,44.0051957225,0 -114.5723836179,44.0055658615,0 -114.5721365294,44.0054368522,0 -114.5719256229,44.0053137890,0 -114.5719654390,44.0048846480,0 -114.5719624599,44.0043562881,0 -114.5717237539,44.0041238605,0 -114.5714221309,44.0040775690,0 -114.5711790865,44.0040337944,0 -114.5709858234,44.0041049880,0 -114.5708311097,44.0039854331,0 -114.5706096165,44.0037661185,0 -114.5702285987,44.0036433803,0 -114.5697911098,44.0036252537,0 -114.5694543043,44.0036456750,0 -114.5691033508,44.0037776135,0 -114.5688142813,44.0039945358,0 -114.5687190516,44.0039212502,0 -114.5684330620,44.0039295305,0 -114.5677909401,44.0043701758,0 -114.5673705994,44.0044805289,0 -114.5668791696,44.0044967730,0 -114.5663686355,44.0043247802,0 -114.5670527446,44.0035332227,0 -114.5670326879,44.0032707131,0 -114.5671816575,44.0031029217,0 -114.5667470575,44.0027925095,0 -114.5656818716,44.0023921347,0 -114.5656042436,44.0021698743,0 -114.5654291129,44.0018427523,0 -114.5654076160,44.0016003242,0 -114.5652676517,44.0013364921,0 -114.5650877104,44.0011386172,0 -114.5651265438,44.0009278067,0 -114.5653801654,44.0007278627,0 -114.5655368655,44.0005459758,0 -114.5657591317,44.0004029205,0 -114.5658054949,44.0002168452,0 -114.5657488500,44.0000611860,0 -114.5658114193,43.9998344191,0 -114.5655052214,43.9997728906,0 -114.5652448608,43.9998005778,0 -114.5650059503,43.9999110246,0 -114.5648220644,44.0000616984,0 -114.5644302442,44.0000346830,0 -114.5639875095,44.0000212436,0 -114.5635026685,44.0001483023,0 -114.5632062161,44.0003786265,0 -114.5627330441,44.0003911869,0 -114.5625836629,44.0001743844,0 -114.5626079722,43.9998579581,0 -114.5626655728,43.9995861357,0 -114.5628375501,43.9994229616,0 -114.5631842177,43.9993833215,0 -114.5635299787,43.9992936416,0 -114.5640799630,43.9991752812,0 -114.5643801944,43.9991138621,0 -114.5642607153,43.9987583247,0 -114.5643120082,43.9984324186,0 -114.5646935969,43.9981993835,0 -114.5650820886,43.9980364388,0 -114.5653752696,43.9979241597,0 -114.5657184707,43.9978338297,0 -114.5660466755,43.9977839268,0 -114.5664877772,43.9978833794,0 -114.5667607762,43.9982088493,0 -114.5671885307,43.9982216533,0 -114.5674775799,43.9980762535,0 -114.5678568230,43.9981434548,0 -114.5680239250,43.9980499054,0 -114.5679193053,43.9978318800,0 -114.5679460131,43.9975653973,0 -114.5682844083,43.9976962674,0 -114.5685178875,43.9979174687,0 -114.5687102033,43.9979782797,0 -114.5691033843,43.9979497673,0 -114.5692950627,43.9977944481,0 -114.5695201898,43.9975816431,0 -114.5697514145,43.9973030596,0 -114.5698121503,43.9970493026,0 -114.5700414932,43.9968343813,0 -114.5703510400,43.9964994235,0 -114.5705795819,43.9963079758,0 -114.5707280990,43.9960885442,0 -114.5719356157,43.9953543818,0 -114.5720856292,43.9951668606,0 -114.5725187766,43.9950276539,0 -114.5728468500,43.9950086250,0 -114.5730878174,43.9950531312,0 -114.5733974692,43.9952046000,0 -114.5740725367,43.9953525624,0 -114.5744028133,43.9954942591,0 -114.5746890819,43.9956371856,0 -114.5749457270,43.9958259832,0 -114.5754859801,43.9958826507,0 -114.5757797435,43.9957249949,0 -114.5760137224,43.9955174433,0 -114.5760551577,43.9952986868,0 -114.5759653490,43.9949958262,0 -114.5759181634,43.9947519875,0 -114.5749536706,43.9945698351,0 -114.5746551559,43.9943767703,0 -114.5746983076,43.9941893875,0 -114.5749095395,43.9940877665,0 -114.5752908504,43.9941485884,0 -114.5770025893,43.9941751086,0 -114.5774248736,43.9938889306,0 -114.5781174873,43.9937971788,0 -114.5796377985,43.9936174662,0 -114.5810142704,43.9937844588,0 -114.5834878276,43.9931379380,0 -114.5854944350,43.9925614302,0 -114.5849032191,43.9917824955,0 -114.5857735474,43.9917476668,0 -114.5861218397,43.9911341152,0 -114.5866811900,43.9909233316,0 -114.5875142633,43.9909817749,0 -114.5882056376,43.9907500696,0 -114.5894627858,43.9907746476,0 -114.5899250488,43.9902573176,0 -114.5890635449,43.9894789355,0 -114.5893521668,43.9889285557,0 -114.5892711156,43.9884324554,0 -114.5891147507,43.9874817881,0 -114.5898774114,43.9872628008,0 -114.5906729661,43.9875556678,0 -114.5915848171,43.9873089008,0 -114.5926961480,43.9873639283,0 -114.5934250229,43.9876429420,0 -114.5940762575,43.9876124215,0 -114.5952332398,43.9880199983,0 -114.5960654833,43.9879680700,0 -114.5958997067,43.9874432242,0 -114.5959933535,43.9869404906,0 -114.5965558422,43.9866672944,0 -114.5970908109,43.9868292032,0 -114.5977421791,43.9869678378,0 -114.5978775849,43.9874271903,0 -114.5974518849,43.9877339366,0 -114.5975208289,43.9884092285,0 -114.5978598894,43.9887071030,0 -114.5983298514,43.9883275635,0 -114.5985540900,43.9884348292,0 -114.5989123185,43.9884664083,0 -114.5991068188,43.9884163933,0 -114.5991657168,43.9884012479,0 -114.5993093534,43.9884195848,0 -114.5992747685,43.9882405951,0 -114.5999009705,43.9881207974,0 -114.6002736165,43.9881624863,0 -114.6002789552,43.9881517489,0</coordinates>
						</LinearRing>
					</outerBoundaryIs>
				</Polygon>
				<styleUrl>#ft-0</styleUrl>
			</Placemark>
			<Placemark>
				<name>Heat Perimeter</name>
				<ExtendedData>
					<SchemaData schemaUrl="#S_schema_31479787472627317772">
						<SimpleData name="FeatureType">shape</SimpleData>
						<SimpleData name="IconPath"/>
						<SimpleData name="Name">Heat Perimeter</SimpleData>
						<SimpleData name="Comment"/>
						<SimpleData name="Altitude">0</SimpleData>
						<SimpleData name="ScreenshotPath"/>
						<SimpleData name="NameBak"/>
					</SchemaData>
				</ExtendedData>
				<ars_uniqueid>1</ars_uniqueid>
				<Polygon>
					<outerBoundaryIs>
						<LinearRing>
							<coordinates>-114.6102627971,44.0192598052,0 -114.6098657092,44.0192437838,0 -114.6098029397,44.0191886013,0 -114.6098957119,44.0190856220,0 -114.6101036230,44.0189218318,0 -114.6102995657,44.0188870484,0 -114.6104070710,44.0190265675,0 -114.6103968375,44.0191841039,0 -114.6102627971,44.0192598052,0</coordinates>
						</LinearRing>
					</outerBoundaryIs>
				</Polygon>
				<styleUrl>#ft-1</styleUrl>
			</Placemark>
			<Placemark>
				<name>Heat Perimeter</name>
				<ExtendedData>
					<SchemaData schemaUrl="#S_schema_31479787472627317772">
						<SimpleData name="FeatureType">shape</SimpleData>
						<SimpleData name="IconPath"/>
						<SimpleData name="Name">Heat Perimeter</SimpleData>
						<SimpleData name="Comment"/>
						<SimpleData name="Altitude">0</SimpleData>
						<SimpleData name="ScreenshotPath"/>
						<SimpleData name="NameBak"/>
					</SchemaData>
				</ExtendedData>
				<ars_uniqueid>2</ars_uniqueid>
				<Polygon>
					<outerBoundaryIs>
						<LinearRing>
							<coordinates>-114.6074877083,44.0140023405,0 -114.6074232150,44.0139186270,0 -114.6075194474,44.0138727085,0 -114.6077188392,44.0138949887,0 -114.6076862346,44.0140103561,0 -114.6074877083,44.0140023405,0</coordinates>
						</LinearRing>
					</outerBoundaryIs>
				</Polygon>
				<styleUrl>#ft-2</styleUrl>
			</Placemark>
			<Placemark>
				<name>Heat Perimeter</name>
				<ExtendedData>
					<SchemaData schemaUrl="#S_schema_31479787472627317772">
						<SimpleData name="FeatureType">shape</SimpleData>
						<SimpleData name="IconPath"/>
						<SimpleData name="Name">Heat Perimeter</SimpleData>
						<SimpleData name="Comment"/>
						<SimpleData name="Altitude">0</SimpleData>
						<SimpleData name="ScreenshotPath"/>
						<SimpleData name="NameBak"/>
					</SchemaData>
				</ExtendedData>
				<ars_uniqueid>3</ars_uniqueid>
				<Polygon>
					<outerBoundaryIs>
						<LinearRing>
							<coordinates>-114.6202477460,44.0274329302,0 -114.6199116521,44.0274435929,0 -114.6198608113,44.0272594093,0 -114.6200954454,44.0272090895,0 -114.6202966243,44.0272598750,0 -114.6203439890,44.0273870006,0 -114.6202477460,44.0274329302,0</coordinates>
						</LinearRing>
					</outerBoundaryIs>
				</Polygon>
				<styleUrl>#ft-3</styleUrl>
			</Placemark>
			<Placemark>
				<name>Heat Perimeter</name>
				<ExtendedData>
					<SchemaData schemaUrl="#S_schema_31479787472627317772">
						<SimpleData name="FeatureType">shape</SimpleData>
						<SimpleData name="IconPath"/>
						<SimpleData name="Name">Heat Perimeter</SimpleData>
						<SimpleData name="Comment"/>
						<SimpleData name="Altitude">0</SimpleData>
						<SimpleData name="ScreenshotPath"/>
						<SimpleData name="NameBak"/>
					</SchemaData>
				</ExtendedData>
				<ars_uniqueid>4</ars_uniqueid>
				<Polygon>
					<outerBoundaryIs>
						<LinearRing>
							<coordinates>-114.6124314424,44.0243077259,0 -114.6121916081,44.0242724422,0 -114.6121288308,44.0242172613,0 -114.6120247805,44.0241348027,0 -114.6120736809,44.0239617502,0 -114.6122705060,44.0239412275,0 -114.6124612594,44.0238208523,0 -114.6126572164,44.0237860643,0 -114.6128292492,44.0240092904,0 -114.6128396589,44.0241804654,0 -114.6126419658,44.0241867245,0 -114.6124314424,44.0243077259,0</coordinates>
						</LinearRing>
					</outerBoundaryIs>
				</Polygon>
				<styleUrl>#ft-4</styleUrl>
			</Placemark>
			<Placemark>
				<name>Heat Perimeter</name>
				<ExtendedData>
					<SchemaData schemaUrl="#S_schema_31479787472627317772">
						<SimpleData name="FeatureType">shape</SimpleData>
						<SimpleData name="IconPath"/>
						<SimpleData name="Name">Heat Perimeter</SimpleData>
						<SimpleData name="Comment"/>
						<SimpleData name="Altitude">0</SimpleData>
						<SimpleData name="ScreenshotPath"/>
						<SimpleData name="NameBak"/>
					</SchemaData>
				</ExtendedData>
				<ars_uniqueid>5</ars_uniqueid>
				<Polygon>
					<outerBoundaryIs>
						<LinearRing>
							<coordinates>-114.6129155850,44.0231490339,0 -114.6126774900,44.0231422802,0 -114.6124771983,44.0231057452,0 -114.6123121081,44.0229966352,0 -114.6122045906,44.0228571183,0 -114.6121477075,44.0225730779,0 -114.6123323857,44.0223528509,0 -114.6125833074,44.0222448628,0 -114.6126847528,44.0222845272,0 -114.6128103042,44.0223948886,0 -114.6129951623,44.0225033720,0 -114.6130477119,44.0227160888,0 -114.6129154024,44.0228203225,0 -114.6129601449,44.0229046582,0 -114.6130865656,44.0230292837,0 -114.6129155850,44.0231490339,0</coordinates>
						</LinearRing>
					</outerBoundaryIs>
				</Polygon>
				<styleUrl>#ft-5</styleUrl>
			</Placemark>
			<Placemark>
				<name>Heat Perimeter</name>
				<ExtendedData>
					<SchemaData schemaUrl="#S_schema_31479787472627317772">
						<SimpleData name="FeatureType">shape</SimpleData>
						<SimpleData name="IconPath"/>
						<SimpleData name="Name">Heat Perimeter</SimpleData>
						<SimpleData name="Comment"/>
						<SimpleData name="Altitude">0</SimpleData>
						<SimpleData name="ScreenshotPath"/>
						<SimpleData name="NameBak"/>
					</SchemaData>
				</ExtendedData>
				<ars_uniqueid>6</ars_uniqueid>
				<Polygon>
					<outerBoundaryIs>
						<LinearRing>
							<coordinates>-114.6149255633,44.0252577668,0 -114.6147450328,44.0252206098,0 -114.6147973979,44.0251046145,0 -114.6149160153,44.0251008568,0 -114.6150011697,44.0251982034,0 -114.6149255633,44.0252577668,0</coordinates>
						</LinearRing>
					</outerBoundaryIs>
				</Polygon>
				<styleUrl>#ft-6</styleUrl>
			</Placemark>
			<Placemark>
				<name>Heat Perimeter</name>
				<ExtendedData>
					<SchemaData schemaUrl="#S_schema_31479787472627317772">
						<SimpleData name="FeatureType">shape</SimpleData>
						<SimpleData name="IconPath"/>
						<SimpleData name="Name">Heat Perimeter</SimpleData>
						<SimpleData name="Comment"/>
						<SimpleData name="Altitude">0</SimpleData>
						<SimpleData name="ScreenshotPath"/>
						<SimpleData name="NameBak"/>
					</SchemaData>
				</ExtendedData>
				<ars_uniqueid>7</ars_uniqueid>
				<Polygon>
					<outerBoundaryIs>
						<LinearRing>
							<coordinates>-114.6209927164,44.0245156093,0 -114.6212214050,44.0245845762,0 -114.6214083410,44.0246104873,0 -114.6215119337,44.0245848839,0 -114.6215584289,44.0246977445,0 -114.6215071381,44.0247135107,0 -114.6215422281,44.0247924948,0 -114.6214843014,44.0249253437,0 -114.6212867083,44.0249989105,0 -114.6212825291,44.0250056686,0 -114.6211888360,44.0250216527,0 -114.6211863976,44.0250207624,0 -114.6209668043,44.0250373781,0 -114.6207699918,44.0250251706,0 -114.6206989325,44.0249782179,0 -114.6207098782,44.0249432780,0 -114.6206153213,44.0249073997,0 -114.6205968485,44.0247825605,0 -114.6206804038,44.0247167252,0 -114.6206674562,44.0246360272,0 -114.6207586064,44.0245642074,0 -114.6209795462,44.0245770532,0 -114.6209927164,44.0245156093,0</coordinates>
						</LinearRing>
					</outerBoundaryIs>
				</Polygon>
				<styleUrl>#ft-7</styleUrl>
			</Placemark>
			<Placemark>
				<name>Heat Perimeter</name>
				<ExtendedData>
					<SchemaData schemaUrl="#S_schema_31479787472627317772">
						<SimpleData name="FeatureType">shape</SimpleData>
						<SimpleData name="IconPath"/>
						<SimpleData name="Name">Heat Perimeter</SimpleData>
						<SimpleData name="Comment"/>
						<SimpleData name="Altitude">0</SimpleData>
						<SimpleData name="ScreenshotPath"/>
						<SimpleData name="NameBak"/>
					</SchemaData>
				</ExtendedData>
				<ars_uniqueid>8</ars_uniqueid>
				<Polygon>
					<outerBoundaryIs>
						<LinearRing>
							<coordinates>-114.6223574777,43.9996441815,0 -114.6221835209,43.9994824659,0 -114.6222235393,43.9994263219,0 -114.6224492455,43.9993878005,0 -114.6225454885,43.9995415274,0 -114.6226421349,43.9996627254,0 -114.6227195180,43.9996339025,0 -114.6227122199,43.9996281177,0 -114.6227688954,43.9995834422,0 -114.6228711765,43.9996373632,0 -114.6228734519,43.9996747063,0 -114.6228934907,43.9996796115,0 -114.6229062774,43.9997403993,0 -114.6228788438,43.9997532516,0 -114.6229217506,43.9997909736,0 -114.6228674658,43.9999155219,0 -114.6226484911,43.9998650565,0 -114.6226144606,43.9999076849,0 -114.6223345551,43.9999288725,0 -114.6222268894,43.9998400260,0 -114.6222557939,43.9998247508,0 -114.6221474265,43.9997651859,0 -114.6222195186,43.9996485608,0 -114.6223574777,43.9996441815,0</coordinates>
						</LinearRing>
					</outerBoundaryIs>
				</Polygon>
				<styleUrl>#ft-8</styleUrl>
			</Placemark>
			<Placemark>
				<name>Heat Perimeter</name>
				<ExtendedData>
					<SchemaData schemaUrl="#S_schema_31479787472627317772">
						<SimpleData name="FeatureType">shape</SimpleData>
						<SimpleData name="IconPath"/>
						<SimpleData name="Name">Heat Perimeter</SimpleData>
						<SimpleData name="Comment"/>
						<SimpleData name="Altitude">0</SimpleData>
						<SimpleData name="ScreenshotPath"/>
						<SimpleData name="NameBak"/>
					</SchemaData>
				</ExtendedData>
				<ars_uniqueid>9</ars_uniqueid>
				<Polygon>
					<outerBoundaryIs>
						<LinearRing>
							<coordinates>-114.6118976319,44.0214537151,0 -114.6117091954,44.0213405792,0 -114.6117392523,44.0212919876,0 -114.6118201752,44.0212656062,0 -114.6119204623,44.0212862518,0 -114.6119928607,44.0213911506,0 -114.6118976319,44.0214537151,0</coordinates>
						</LinearRing>
					</outerBoundaryIs>
				</Polygon>
				<styleUrl>#ft-9</styleUrl>
			</Placemark>
			<Placemark>
				<name>Heat Perimeter</name>
				<ExtendedData>
					<SchemaData schemaUrl="#S_schema_31479787472627317772">
						<SimpleData name="FeatureType">shape</SimpleData>
						<SimpleData name="IconPath"/>
						<SimpleData name="Name">Heat Perimeter</SimpleData>
						<SimpleData name="Comment"/>
						<SimpleData name="Altitude">0</SimpleData>
						<SimpleData name="ScreenshotPath"/>
						<SimpleData name="NameBak"/>
					</SchemaData>
				</ExtendedData>
				<ars_uniqueid>10</ars_uniqueid>
				<Polygon>
					<outerBoundaryIs>
						<LinearRing>
							<coordinates>-114.6153074934,44.0270387295,0 -114.6151441886,44.0270677236,0 -114.6151362308,44.0269369653,0 -114.6151820391,44.0268759638,0 -114.6153131166,44.0268599008,0 -114.6154027270,44.0269761620,0 -114.6153074934,44.0270387295,0</coordinates>
						</LinearRing>
					</outerBoundaryIs>
				</Polygon>
				<styleUrl>#ft-10</styleUrl>
			</Placemark>
			<Placemark>
				<name>Heat Perimeter</name>
				<ExtendedData>
					<SchemaData schemaUrl="#S_schema_31479787472627317772">
						<SimpleData name="FeatureType">shape</SimpleData>
						<SimpleData name="IconPath"/>
						<SimpleData name="Name">Heat Perimeter</SimpleData>
						<SimpleData name="Comment"/>
						<SimpleData name="Altitude">0</SimpleData>
						<SimpleData name="ScreenshotPath"/>
						<SimpleData name="NameBak"/>
					</SchemaData>
				</ExtendedData>
				<ars_uniqueid>11</ars_uniqueid>
				<Polygon>
					<outerBoundaryIs>
						<LinearRing>
							<coordinates>-114.5911314437,44.0084131308,0 -114.5910599515,44.0084205730,0 -114.5910482365,44.0084465041,0 -114.5910156954,44.0084721320,0 -114.5908540782,44.0084772179,0 -114.5907231479,44.0084259793,0 -114.5907863760,44.0083440273,0 -114.5910251042,44.0082952025,0 -114.5910456161,44.0082620580,0 -114.5911949636,44.0082392269,0 -114.5911930790,44.0082319778,0 -114.5912403357,44.0081947603,0 -114.5914394167,44.0082123150,0 -114.5915411120,44.0082567545,0 -114.5914637876,44.0083425587,0 -114.5913061283,44.0083249165,0 -114.5912235278,44.0083856290,0 -114.5911314437,44.0084131308,0</coordinates>
						</LinearRing>
					</outerBoundaryIs>
				</Polygon>
				<styleUrl>#ft-11</styleUrl>
			</Placemark>
			<Placemark>
				<name>Heat Perimeter</name>
				<ExtendedData>
					<SchemaData schemaUrl="#S_schema_31479787472627317772">
						<SimpleData name="FeatureType">shape</SimpleData>
						<SimpleData name="IconPath"/>
						<SimpleData name="Name">Heat Perimeter</SimpleData>
						<SimpleData name="Comment"/>
						<SimpleData name="Altitude">0</SimpleData>
						<SimpleData name="ScreenshotPath"/>
						<SimpleData name="NameBak"/>
					</SchemaData>
				</ExtendedData>
				<ars_uniqueid>12</ars_uniqueid>
				<Polygon>
					<outerBoundaryIs>
						<LinearRing>
							<coordinates>-114.5959845561,44.0118586044,0 -114.5958218163,44.0118452798,0 -114.5958110812,44.0118087124,0 -114.5958502713,44.0117521189,0 -114.5959183241,44.0117499744,0 -114.5960033900,44.0117472937,0 -114.5961073263,44.0117747731,0 -114.5960947706,44.0118489801,0 -114.5959845561,44.0118586044,0</coordinates>
						</LinearRing>
					</outerBoundaryIs>
				</Polygon>
				<styleUrl>#ft-12</styleUrl>
			</Placemark>
			<Placemark>
				<name>Heat Perimeter</name>
				<ExtendedData>
					<SchemaData schemaUrl="#S_schema_31479787472627317772">
						<SimpleData name="FeatureType">shape</SimpleData>
						<SimpleData name="IconPath"/>
						<SimpleData name="Name">Heat Perimeter</SimpleData>
						<SimpleData name="Comment"/>
						<SimpleData name="Altitude">0</SimpleData>
						<SimpleData name="ScreenshotPath"/>
						<SimpleData name="NameBak"/>
					</SchemaData>
				</ExtendedData>
				<ars_uniqueid>13</ars_uniqueid>
				<Polygon>
					<outerBoundaryIs>
						<LinearRing>
							<coordinates>-114.5879475242,44.0072672533,0 -114.5880706555,44.0072120386,0 -114.5882425253,44.0072401320,0 -114.5882573253,44.0074853163,0 -114.5882021911,44.0074845649,0 -114.5879777556,44.0075589370,0 -114.5876863260,44.0075311943,0 -114.5875402409,44.0075111833,0 -114.5875187826,44.0074380464,0 -114.5875561257,44.0073507591,0 -114.5876300864,44.0073053771,0 -114.5879475242,44.0072672533,0</coordinates>
						</LinearRing>
					</outerBoundaryIs>
				</Polygon>
				<styleUrl>#ft-13</styleUrl>
			</Placemark>
			<Placemark>
				<name>Heat Perimeter</name>
				<ExtendedData>
					<SchemaData schemaUrl="#S_schema_31479787472627317772">
						<SimpleData name="FeatureType">shape</SimpleData>
						<SimpleData name="IconPath"/>
						<SimpleData name="Name">Heat Perimeter</SimpleData>
						<SimpleData name="Comment"/>
						<SimpleData name="Altitude">0</SimpleData>
						<SimpleData name="ScreenshotPath"/>
						<SimpleData name="NameBak"/>
					</SchemaData>
				</ExtendedData>
				<ars_uniqueid>14</ars_uniqueid>
				<Polygon>
					<outerBoundaryIs>
						<LinearRing>
							<coordinates>-114.5848495802,44.0052891341,0 -114.5846964763,44.0052939438,0 -114.5846850090,44.0052450964,0 -114.5847153301,44.0051826343,0 -114.5848854452,44.0051772902,0 -114.5849383308,44.0052063836,0 -114.5849424032,44.0052739161,0 -114.5848495802,44.0052891341,0</coordinates>
						</LinearRing>
					</outerBoundaryIs>
				</Polygon>
				<styleUrl>#ft-14</styleUrl>
			</Placemark>
			<Placemark>
				<name>Heat Perimeter</name>
				<ExtendedData>
					<SchemaData schemaUrl="#S_schema_31479787472627317772">
						<SimpleData name="FeatureType">shape</SimpleData>
						<SimpleData name="IconPath"/>
						<SimpleData name="Name">Heat Perimeter</SimpleData>
						<SimpleData name="Comment"/>
						<SimpleData name="Altitude">0</SimpleData>
						<SimpleData name="ScreenshotPath"/>
						<SimpleData name="NameBak"/>
					</SchemaData>
				</ExtendedData>
				<ars_uniqueid>15</ars_uniqueid>
				<Polygon>
					<outerBoundaryIs>
						<LinearRing>
							<coordinates>-114.5843980576,44.0057154320,0 -114.5842719507,44.0057439969,0 -114.5841946578,44.0057341227,0 -114.5841735745,44.0056671244,0 -114.5841976115,44.0056417656,0 -114.5842571523,44.0056398954,0 -114.5843248452,44.0056377692,0 -114.5843709604,44.0055915197,0 -114.5844383592,44.0055475597,0 -114.5845593252,44.0055507338,0 -114.5846339638,44.0056268446,0 -114.5845336515,44.0056857863,0 -114.5844531487,44.0057127234,0 -114.5843974786,44.0057144721,0 -114.5843980576,44.0057154320,0</coordinates>
						</LinearRing>
					</outerBoundaryIs>
				</Polygon>
				<styleUrl>#ft-15</styleUrl>
			</Placemark>
			<Placemark>
				<name>Heat Perimeter</name>
				<ExtendedData>
					<SchemaData schemaUrl="#S_schema_31479787472627317772">
						<SimpleData name="FeatureType">shape</SimpleData>
						<SimpleData name="IconPath"/>
						<SimpleData name="Name">Heat Perimeter</SimpleData>
						<SimpleData name="Comment"/>
						<SimpleData name="Altitude">0</SimpleData>
						<SimpleData name="ScreenshotPath"/>
						<SimpleData name="NameBak"/>
					</SchemaData>
				</ExtendedData>
				<ars_uniqueid>16</ars_uniqueid>
				<Polygon>
					<outerBoundaryIs>
						<LinearRing>
							<coordinates>-114.6029328382,44.0154449002,0 -114.6027345955,44.0154416313,0 -114.6027030513,44.0153568749,0 -114.6027373957,44.0152700381,0 -114.6028296397,44.0152671257,0 -114.6029218836,44.0152642132,0 -114.6030193167,44.0153468892,0 -114.6029328382,44.0154449002,0</coordinates>
						</LinearRing>
					</outerBoundaryIs>
				</Polygon>
				<styleUrl>#ft-16</styleUrl>
			</Placemark>
			<Placemark>
				<name>Features</name>
				<ExtendedData>
					<SchemaData schemaUrl="#S_schema_31479787472627317772">
						<SimpleData name="FeatureType">shape</SimpleData>
						<SimpleData name="IconPath"/>
						<SimpleData name="Name">Features</SimpleData>
						<SimpleData name="Comment"/>
						<SimpleData name="Altitude"/>
						<SimpleData name="ScreenshotPath"/>
						<SimpleData name="NameBak"/>
					</SchemaData>
				</ExtendedData>
				<ars_uniqueid>17</ars_uniqueid>
				<Polygon>
					<outerBoundaryIs>
						<LinearRing>
							<coordinates>-114.5685597308,43.9947048430,0 -114.5687802987,43.9946203716,0 -114.5688506141,43.9944911941,0 -114.5686110018,43.9944038005,0 -114.5683618538,43.9943218256,0 -114.5682280884,43.9943958666,0 -114.5682088010,43.9945387498,0 -114.5682734242,43.9946652389,0 -114.5683977251,43.9947522782,0 -114.5685597308,43.9947048430,0</coordinates>
						</LinearRing>
					</outerBoundaryIs>
				</Polygon>
			</Placemark>
			<Placemark>
				<name>Features</name>
				<ExtendedData>
					<SchemaData schemaUrl="#S_schema_31479787472627317772">
						<SimpleData name="FeatureType">shape</SimpleData>
						<SimpleData name="IconPath"/>
						<SimpleData name="Name">Features</SimpleData>
						<SimpleData name="Comment"/>
						<SimpleData name="Altitude"/>
						<SimpleData name="ScreenshotPath"/>
						<SimpleData name="NameBak"/>
					</SchemaData>
				</ExtendedData>
				<ars_uniqueid>18</ars_uniqueid>
				<Polygon>
					<outerBoundaryIs>
						<LinearRing>
							<coordinates>-114.5718591054,43.9942392070,0 -114.5718819366,43.9940739425,0 -114.5717445600,43.9940153554,0 -114.5712516547,43.9941078270,0 -114.5711894634,43.9943703669,0 -114.5712610973,43.9944969453,0 -114.5716042781,43.9944063599,0 -114.5718591054,43.9942392070,0</coordinates>
						</LinearRing>
					</outerBoundaryIs>
				</Polygon>
			</Placemark>
		</Folder>
		<Style id="ft-0">
			<LineStyle>
				<color>bfffff00</color>
			</LineStyle>
			<PolyStyle>
				<color>bfffff00</color>
			</PolyStyle>
		</Style>
		<Style id="ft-1">
			<LineStyle>
				<color>ff0000ff</color>
			</LineStyle>
			<PolyStyle>
				<color>ff0000ff</color>
			</PolyStyle>
		</Style>
		<Style id="ft-10">
			<LineStyle>
				<color>ff0000ff</color>
			</LineStyle>
			<PolyStyle>
				<color>ff0000ff</color>
			</PolyStyle>
		</Style>
		<Style id="ft-11">
			<LineStyle>
				<color>ff0000ff</color>
			</LineStyle>
			<PolyStyle>
				<color>ff0000ff</color>
			</PolyStyle>
		</Style>
		<Style id="ft-12">
			<LineStyle>
				<color>ff0000ff</color>
			</LineStyle>
			<PolyStyle>
				<color>ff0000ff</color>
			</PolyStyle>
		</Style>
		<Style id="ft-13">
			<LineStyle>
				<color>ff0000ff</color>
			</LineStyle>
			<PolyStyle>
				<color>ff0000ff</color>
			</PolyStyle>
		</Style>
		<Style id="ft-14">
			<LineStyle>
				<color>ff0000ff</color>
			</LineStyle>
			<PolyStyle>
				<color>ff0000ff</color>
			</PolyStyle>
		</Style>
		<Style id="ft-15">
			<LineStyle>
				<color>ff0000ff</color>
			</LineStyle>
			<PolyStyle>
				<color>ff0000ff</color>
			</PolyStyle>
		</Style>
		<Style id="ft-16">
			<LineStyle>
				<color>ff0000ff</color>
			</LineStyle>
			<PolyStyle>
				<color>ff0000ff</color>
			</PolyStyle>
		</Style>
		<Style id="ft-2">
			<LineStyle>
				<color>ff0000ff</color>
			</LineStyle>
			<PolyStyle>
				<color>ff0000ff</color>
			</PolyStyle>
		</Style>
		<Style id="ft-3">
			<LineStyle>
				<color>ff0000ff</color>
			</LineStyle>
			<PolyStyle>
				<color>ff0000ff</color>
			</PolyStyle>
		</Style>
		<Style id="ft-4">
			<LineStyle>
				<color>ff0000ff</color>
			</LineStyle>
			<PolyStyle>
				<color>ff0000ff</color>
			</PolyStyle>
		</Style>
		<Style id="ft-5">
			<LineStyle>
				<color>ff0000ff</color>
			</LineStyle>
			<PolyStyle>
				<color>ff0000ff</color>
			</PolyStyle>
		</Style>
		<Style id="ft-6">
			<LineStyle>
				<color>ff0000ff</color>
			</LineStyle>
			<PolyStyle>
				<color>ff0000ff</color>
			</PolyStyle>
		</Style>
		<Style id="ft-7">
			<LineStyle>
				<color>ff0000ff</color>
			</LineStyle>
			<PolyStyle>
				<color>ff0000ff</color>
			</PolyStyle>
		</Style>
		<Style id="ft-8">
			<LineStyle>
				<color>ff0000ff</color>
			</LineStyle>
			<PolyStyle>
				<color>ff0000ff</color>
			</PolyStyle>
		</Style>
		<Style id="ft-9">
			<LineStyle>
				<color>ff0000ff</color>
			</LineStyle>
			<PolyStyle>
				<color>ff0000ff</color>
			</PolyStyle>
		</Style>
	</Document>
</kml>